[{"OBJECT_NAME":"STARLINK-2549","OBJECT_ID":"2021-036AQ","EPOCH":"2026-03-10T00:00:02.999808","MEAN_MOTION":15.29332673,"ECCENTRICITY":0.00013915,"INCLINATION":53.155,"RA_OF_ASC_NODE":89.1773,"ARG_OF_PERICENTER":87.7776,"MEAN_ANOMALY":73.5921,"EPHEMERIS_TYPE":0,"CLASSIFICATION_TYPE":"U","NORAD_CAT_ID":48314,"ELEMENT_SET_NO":999,"REV_AT_EPOCH":574,"BSTAR":0.0013509646,"MEAN_MOTION_DOT":0.00038803,"MEAN_MOTION_DDOT":0},{"OBJECT_NAME":"VSP ROSE","OBJECT_ID":"2024-043AC","EPOCH":"2026-03-09T21:48:06.922944","MEAN_MOTION":15.27746075,"ECCENTRICITY":0.00099339,"INCLINATION":97.5443,"RA_OF_ASC_NODE":203.927,"ARG_OF_PERICENTER":232.2702,"MEAN_ANOMALY":127.7637,"EPHEMERIS_TYPE":0,"CLASSIFICATION_TYPE":"U","NORAD_CAT_ID":59124,"ELEMENT_SET_NO":999,"REV_AT_EPOCH":11182,"BSTAR":0.00025731354,"MEAN_MOTION_DOT":6.907e-5,"MEAN_MOTION_DDOT":0}]
